[{"OBJECT_NAME":"STARLINK-1545","OBJECT_ID":"2020-057AR","EPOCH":"2026-03-10T00:00:02.999808","MEAN_MOTION":15.61488113,"ECCENTRICITY":0.0001061,"INCLINATION":53.0451,"RA_OF_ASC_NODE":256.9327,"ARG_OF_PERICENTER":14.32,"MEAN_ANOMALY":21.5114,"EPHEMERIS_TYPE":0,"CLASSIFICATION_TYPE":"U","NORAD_CAT_ID":46156,"ELEMENT_SET_NO":999,"REV_AT_EPOCH":589,"BSTAR":0.0018479178,"MEAN_MOTION_DOT":0.00163853,"MEAN_MOTION_DDOT":0},{"OBJECT_NAME":"STARLINK-1967","OBJECT_ID":"2021-009W","EPOCH":"2026-03-09T22:00:01.999584","MEAN_MOTION":15.623797,"ECCENTRICITY":0.00048402,"INCLINATION":53.0461,"RA_OF_ASC_NODE":3.8123,"ARG_OF_PERICENTER":79.3428,"MEAN_ANOMALY":112.5848,"EPHEMERIS_TYPE":0,"CLASSIFICATION_TYPE":"U","NORAD_CAT_ID":47568,"ELEMENT_SET_NO":999,"REV_AT_EPOCH":571,"BSTAR":0.0014990146,"MEAN_MOTION_DOT":0.00137094,"MEAN_MOTION_DDOT":0}]
